{
  "type": "FeatureCollection",
  "features": [
    {
      "type": "Feature",
      "properties": {
        "norad_id": 31195,
        "name": "FENGYUN 1C DEB",
        "group": "fengyun-1c-debris",
        "lat": 80.5181303079565,
        "lon": -94.58079888015567,
        "alt_km": 866.3008636591494,
        "timestamp": "2025-12-10T07:43:55.060150+00:00",
        "meta_object_name": "FENGYUN 1C DEB",
        "meta_object_id": "1999-025BJZ",
        "meta_epoch": "2025-12-07T19:35:03.175008",
        "meta_mean_motion": 14.07975963,
        "meta_eccentricity": 0.0171658,
        "meta_inclination": 98.7796,
        "meta_ra_of_asc_node": 15.2673,
        "meta_arg_of_pericenter": 195.0493,
        "meta_mean_anomaly": 164.5533,
        "meta_ephemeris_type": 0,
        "meta_classification_type": "U",
        "meta_norad_cat_id": 31195,
        "meta_element_set_no": 999,
        "meta_rev_at_epoch": 96029,
        "meta_bstar": 0.00034191193,
        "meta_mean_motion_dot": 6.22e-06,
        "meta_mean_motion_ddot": 0,
        "tle_line1": "1 31195U 99025BJZ 25341.81600897  .00000622  00000+0  34191-3 0  9998",
        "tle_line2": "2 31195  98.7796  15.2673 0171658 195.0493 164.5533 14.07975963960294"
      },
      "geometry": {
        "type": "Point",
        "coordinates": [
          -94.58079888015567,
          80.5181303079565
        ]
      }
    },
    {
      "type": "Feature",
      "properties": {
        "norad_id": 31196,
        "name": "FENGYUN 1C DEB",
        "group": "fengyun-1c-debris",
        "lat": -67.88608523410895,
        "lon": 155.945885959552,
        "alt_km": 778.2796889522551,
        "timestamp": "2025-12-10T07:43:55.060161+00:00",
        "meta_object_name": "FENGYUN 1C DEB",
        "meta_object_id": "1999-025BKA",
        "meta_epoch": "2025-12-08T19:11:13.432992",
        "meta_mean_motion": 14.25445822,
        "meta_eccentricity": 0.00577315,
        "meta_inclination": 98.5268,
        "meta_ra_of_asc_node": 356.1324,
        "meta_arg_of_pericenter": 223.7518,
        "meta_mean_anomaly": 135.908,
        "meta_ephemeris_type": 0,
        "meta_classification_type": "U",
        "meta_norad_cat_id": 31196,
        "meta_element_set_no": 999,
        "meta_rev_at_epoch": 63439,
        "meta_bstar": 0.00095478472,
        "meta_mean_motion_dot": 2.251e-05,
        "meta_mean_motion_ddot": 0,
        "tle_line1": "1 31196U 99025BKA 25342.79946103  .00002251  00000+0  95478-3 0  9995",
        "tle_line2": "2 31196  98.5268 356.1324 0057731 223.7518 135.9080 14.25445822634393"
      },
      "geometry": {
        "type": "Point",
        "coordinates": [
          155.945885959552,
          -67.88608523410895
        ]
      }
    },
    {
      "type": "Feature",
      "properties": {
        "norad_id": 31198,
        "name": "FENGYUN 1C DEB",
        "group": "fengyun-1c-debris",
        "lat": -17.143811055927166,
        "lon": 91.09914121389802,
        "alt_km": 839.5937718368141,
        "timestamp": "2025-12-10T07:43:55.060171+00:00",
        "meta_object_name": "FENGYUN 1C DEB",
        "meta_object_id": "1999-025BKC",
        "meta_epoch": "2025-12-09T12:36:36.042624",
        "meta_mean_motion": 13.75520391,
        "meta_eccentricity": 0.02039968,
        "meta_inclination": 98.6127,
        "meta_ra_of_asc_node": 87.699,
        "meta_arg_of_pericenter": 0.1889,
        "meta_mean_anomaly": 359.9306,
        "meta_ephemeris_type": 0,
        "meta_classification_type": "U",
        "meta_norad_cat_id": 31198,
        "meta_element_set_no": 999,
        "meta_rev_at_epoch": 62709,
        "meta_bstar": 0.0001575656,
        "meta_mean_motion_dot": 1.38e-06,
        "meta_mean_motion_ddot": 0,
        "tle_line1": "1 31198U 99025BKC 25343.52541716  .00000138  00000+0  15757-3 0  9994",
        "tle_line2": "2 31198  98.6127  87.6990 0203996   0.1889 359.9306 13.75520391627096"
      },
      "geometry": {
        "type": "Point",
        "coordinates": [
          91.09914121389802,
          -17.143811055927166
        ]
      }
    },
    {
      "type": "Feature",
      "properties": {
        "norad_id": 31199,
        "name": "FENGYUN 1C DEB",
        "group": "fengyun-1c-debris",
        "lat": -9.059017958158153,
        "lon": 145.77444767315976,
        "alt_km": 853.413385145489,
        "timestamp": "2025-12-10T07:43:55.060181+00:00",
        "meta_object_name": "FENGYUN 1C DEB",
        "meta_object_id": "1999-025BKD",
        "meta_epoch": "2025-12-05T16:58:40.008864",
        "meta_mean_motion": 14.09979297,
        "meta_eccentricity": 0.00635718,
        "meta_inclination": 98.7162,
        "meta_ra_of_asc_node": 322.7056,
        "meta_arg_of_pericenter": 279.9042,
        "meta_mean_anomaly": 258.7122,
        "meta_ephemeris_type": 0,
        "meta_classification_type": "U",
        "meta_norad_cat_id": 31199,
        "meta_element_set_no": 999,
        "meta_rev_at_epoch": 96060,
        "meta_bstar": 0.00037158052,
        "meta_mean_motion_dot": 6.24e-06,
        "meta_mean_motion_ddot": 0,
        "tle_line1": "1 31199U 99025BKD 25339.70740751  .00000624  00000+0  37158-3 0  9999",
        "tle_line2": "2 31199  98.7162 322.7056 0063571 279.9042 258.7122 14.09979297960603"
      },
      "geometry": {
        "type": "Point",
        "coordinates": [
          145.77444767315976,
          -9.059017958158153
        ]
      }
    },
    {
      "type": "Feature",
      "properties": {
        "norad_id": 31201,
        "name": "FENGYUN 1C DEB",
        "group": "fengyun-1c-debris",
        "lat": -2.6890815285382743,
        "lon": 24.66731951221415,
        "alt_km": 879.7310506179692,
        "timestamp": "2025-12-10T07:43:55.060191+00:00",
        "meta_object_name": "FENGYUN 1C DEB",
        "meta_object_id": "1999-025BKF",
        "meta_epoch": "2025-12-09T14:16:28.521984",
        "meta_mean_motion": 14.35138904,
        "meta_eccentricity": 0.0142821,
        "meta_inclination": 99.0015,
        "meta_ra_of_asc_node": 204.3355,
        "meta_arg_of_pericenter": 0.4456,
        "meta_mean_anomaly": 26.3415,
        "meta_ephemeris_type": 0,
        "meta_classification_type": "U",
        "meta_norad_cat_id": 31201,
        "meta_element_set_no": 999,
        "meta_rev_at_epoch": 97206,
        "meta_bstar": 0.0013509,
        "meta_mean_motion_dot": 4.281e-05,
        "meta_mean_motion_ddot": 0,
        "tle_line1": "1 31201U 99025BKF 25343.59477456  .00004281  00000+0  13509-2 0  9990",
        "tle_line2": "2 31201  99.0015 204.3355 0142821   0.4456  26.3415 14.35138904972065"
      },
      "geometry": {
        "type": "Point",
        "coordinates": [
          24.66731951221415,
          -2.6890815285382743
        ]
      }
    },
    {
      "type": "Feature",
      "properties": {
        "norad_id": 31202,
        "name": "FENGYUN 1C DEB",
        "group": "fengyun-1c-debris",
        "lat": -83.39304758667758,
        "lon": 125.40375509479374,
        "alt_km": 618.7520619995457,
        "timestamp": "2025-12-10T07:43:55.060201+00:00",
        "meta_object_name": "FENGYUN 1C DEB",
        "meta_object_id": "1999-025BKG",
        "meta_epoch": "2025-12-09T15:01:36.990912",
        "meta_mean_motion": 14.83995916,
        "meta_eccentricity": 0.0068102,
        "meta_inclination": 96.5734,
        "meta_ra_of_asc_node": 29.422,
        "meta_arg_of_pericenter": 187.7541,
        "meta_mean_anomaly": 324.6432,
        "meta_ephemeris_type": 0,
        "meta_classification_type": "U",
        "meta_norad_cat_id": 31202,
        "meta_element_set_no": 999,
        "meta_rev_at_epoch": 99108,
        "meta_bstar": 0.001491,
        "meta_mean_motion_dot": 0.00012906,
        "meta_mean_motion_ddot": 0,
        "tle_line1": "1 31202U 99025BKG 25343.62612258  .00012906  00000+0  14910-2 0  9996",
        "tle_line2": "2 31202  96.5734  29.4220 0068102 187.7541 324.6432 14.83995916991089"
      },
      "geometry": {
        "type": "Point",
        "coordinates": [
          125.40375509479374,
          -83.39304758667758
        ]
      }
    },
    {
      "type": "Feature",
      "properties": {
        "norad_id": 31205,
        "name": "FENGYUN 1C DEB",
        "group": "fengyun-1c-debris",
        "lat": 8.290701242227012,
        "lon": 76.00282716766753,
        "alt_km": 925.4868148445894,
        "timestamp": "2025-12-10T07:43:55.060211+00:00",
        "meta_object_name": "FENGYUN 1C DEB",
        "meta_object_id": "1999-025BKK",
        "meta_epoch": "2025-12-08T16:54:13.993632",
        "meta_mean_motion": 14.23952534,
        "meta_eccentricity": 0.01617006,
        "meta_inclination": 99.2293,
        "meta_ra_of_asc_node": 75.6624,
        "meta_arg_of_pericenter": 208.9841,
        "meta_mean_anomaly": 150.2285,
        "meta_ephemeris_type": 0,
        "meta_classification_type": "U",
        "meta_norad_cat_id": 31205,
        "meta_element_set_no": 999,
        "meta_rev_at_epoch": 97153,
        "meta_bstar": 0.00033027217,
        "meta_mean_motion_dot": 8.17e-06,
        "meta_mean_motion_ddot": 0,
        "tle_line1": "1 31205U 99025BKK 25342.70432863  .00000817  00000+0  33027-3 0  9998",
        "tle_line2": "2 31205  99.2293  75.6624 0161700 208.9841 150.2285 14.23952534971530"
      },
      "geometry": {
        "type": "Point",
        "coordinates": [
          76.00282716766753,
          8.290701242227012
        ]
      }
    }
  ]
}